{
  "type": "FeatureCollection",
  "features": [
    {
      "type": "Feature",
      "properties": {
        "norad_id": 56564,
        "name": "BEIDOU-3 G4 (C62)",
        "group": "beidou",
        "lat": -0.8065090854613262,
        "lon": -133.95648482522026,
        "alt_km": 35779.309779460265,
        "timestamp": "2025-12-15T22:44:29.193316+00:00",
        "meta_object_name": "BEIDOU-3 G4 (C62)",
        "meta_object_id": "2023-066A",
        "meta_epoch": "2025-12-15T07:27:38.575296",
        "meta_mean_motion": 1.00271763,
        "meta_eccentricity": 0.0002817,
        "meta_inclination": 0.8091,
        "meta_ra_of_asc_node": 302.2639,
        "meta_arg_of_pericenter": 229.3821,
        "meta_mean_anomaly": 184.5453,
        "meta_ephemeris_type": 0,
        "meta_classification_type": "U",
        "meta_norad_cat_id": 56564,
        "meta_element_set_no": 999,
        "meta_rev_at_epoch": 955,
        "meta_bstar": 0,
        "meta_mean_motion_dot": -8.9e-07,
        "meta_mean_motion_ddot": 0,
        "tle_line1": "1 56564U 23066A   25349.31086314 -.00000089  00000+0  00000+0 0  9998",
        "tle_line2": "2 56564   0.8091 302.2639 0002817 229.3821 184.5453  1.00271763  9552"
      },
      "geometry": {
        "type": "Point",
        "coordinates": [
          -133.95648482522026,
          -0.8065090854613262
        ]
      }
    },
    {
      "type": "Feature",
      "properties": {
        "norad_id": 58654,
        "name": "BEIDOU-3 M28 (C50)",
        "group": "beidou",
        "lat": -10.642899027007086,
        "lon": -104.10819138670033,
        "alt_km": 21528.332449380305,
        "timestamp": "2025-12-15T22:44:29.193328+00:00",
        "meta_object_name": "BEIDOU-3 M28 (C50)",
        "meta_object_id": "2023-207A",
        "meta_epoch": "2025-12-14T14:03:38.795616",
        "meta_mean_motion": 1.86229811,
        "meta_eccentricity": 0.00024957,
        "meta_inclination": 55.586,
        "meta_ra_of_asc_node": 68.5388,
        "meta_arg_of_pericenter": 270.6394,
        "meta_mean_anomaly": 89.3503,
        "meta_ephemeris_type": 0,
        "meta_classification_type": "U",
        "meta_norad_cat_id": 58654,
        "meta_element_set_no": 999,
        "meta_rev_at_epoch": 1340,
        "meta_bstar": 0,
        "meta_mean_motion_dot": -8.4e-07,
        "meta_mean_motion_ddot": 0,
        "tle_line1": "1 58654U 23207A   25348.58586569 -.00000084  00000+0  00000+0 0  9997",
        "tle_line2": "2 58654  55.5860  68.5388 0002495 270.6394  89.3503  1.86229811 13402"
      },
      "geometry": {
        "type": "Point",
        "coordinates": [
          -104.10819138670033,
          -10.642899027007086
        ]
      }
    },
    {
      "type": "Feature",
      "properties": {
        "norad_id": 58655,
        "name": "BEIDOU-3 M26 (C48)",
        "group": "beidou",
        "lat": -25.441122224457697,
        "lon": 49.48621265237862,
        "alt_km": 21528.048825452774,
        "timestamp": "2025-12-15T22:44:29.193339+00:00",
        "meta_object_name": "BEIDOU-3 M26 (C48)",
        "meta_object_id": "2023-207B",
        "meta_epoch": "2025-12-14T09:12:13.791744",
        "meta_mean_motion": 1.86231292,
        "meta_eccentricity": 0.00038911,
        "meta_inclination": 55.5879,
        "meta_ra_of_asc_node": 68.532,
        "meta_arg_of_pericenter": 256.6064,
        "meta_mean_anomaly": 103.3685,
        "meta_ephemeris_type": 0,
        "meta_classification_type": "U",
        "meta_norad_cat_id": 58655,
        "meta_element_set_no": 999,
        "meta_rev_at_epoch": 1338,
        "meta_bstar": 0,
        "meta_mean_motion_dot": -8.4e-07,
        "meta_mean_motion_ddot": 0,
        "tle_line1": "1 58655U 23207B   25348.38349296 -.00000084  00000+0  00000+0 0  9990",
        "tle_line2": "2 58655  55.5879  68.5320 0003891 256.6064 103.3685  1.86231292 13389"
      },
      "geometry": {
        "type": "Point",
        "coordinates": [
          49.48621265237862,
          -25.441122224457697
        ]
      }
    },
    {
      "type": "Feature",
      "properties": {
        "norad_id": 61186,
        "name": "BEIDOU-3 M25 (C47)",
        "group": "beidou",
        "lat": 54.39862372444774,
        "lon": 30.95644216927384,
        "alt_km": 21534.612777393493,
        "timestamp": "2025-12-15T22:44:29.193351+00:00",
        "meta_object_name": "BEIDOU-3 M25 (C47)",
        "meta_object_id": "2024-168B",
        "meta_epoch": "2025-12-13T09:51:38.613312",
        "meta_mean_motion": 1.86230198,
        "meta_eccentricity": 0.00054273,
        "meta_inclination": 54.6413,
        "meta_ra_of_asc_node": 308.6962,
        "meta_arg_of_pericenter": 297.8799,
        "meta_mean_anomaly": 246.8955,
        "meta_ephemeris_type": 0,
        "meta_classification_type": "U",
        "meta_norad_cat_id": 61186,
        "meta_element_set_no": 999,
        "meta_rev_at_epoch": 832,
        "meta_bstar": 0,
        "meta_mean_motion_dot": -9.7e-07,
        "meta_mean_motion_ddot": 0,
        "tle_line1": "1 61186U 24168B   25347.41086358 -.00000097  00000+0  00000+0 0  9994",
        "tle_line2": "2 61186  54.6413 308.6962 0005427 297.8799 246.8955  1.86230198  8320"
      },
      "geometry": {
        "type": "Point",
        "coordinates": [
          30.95644216927384,
          54.39862372444774
        ]
      }
    },
    {
      "type": "Feature",
      "properties": {
        "norad_id": 61187,
        "name": "BEIDOU-3 M27 (C49)",
        "group": "beidou",
        "lat": -31.960242909204634,
        "lon": 154.85437998615907,
        "alt_km": 21535.218133782702,
        "timestamp": "2025-12-15T22:44:29.193362+00:00",
        "meta_object_name": "BEIDOU-3 M27 (C49)",
        "meta_object_id": "2024-168C",
        "meta_epoch": "2025-12-14T06:33:38.742048",
        "meta_mean_motion": 1.86230381,
        "meta_eccentricity": 0.00024262,
        "meta_inclination": 54.6359,
        "meta_ra_of_asc_node": 308.6501,
        "meta_arg_of_pericenter": 337.7802,
        "meta_mean_anomaly": 200.2001,
        "meta_ephemeris_type": 0,
        "meta_classification_type": "U",
        "meta_norad_cat_id": 61187,
        "meta_element_set_no": 999,
        "meta_rev_at_epoch": 581,
        "meta_bstar": 0,
        "meta_mean_motion_dot": -9.9e-07,
        "meta_mean_motion_ddot": 0,
        "tle_line1": "1 61187U 24168C   25348.27336507 -.00000099  00000+0  00000+0 0  9996",
        "tle_line2": "2 61187  54.6359 308.6501 0002426 337.7802 200.2001  1.86230381  5815"
      },
      "geometry": {
        "type": "Point",
        "coordinates": [
          154.85437998615907,
          -31.960242909204634
        ]
      }
    }
  ]
}